IRIDIUM 155             
1 43573U 18061E   24236.51947335  .00000666  00000+0  23081-3 0  9996
2 43573  86.4014 333.6236 0002018  88.9992 271.1435 14.34218500318372
IRIDIUM 154             
1 43574U 18061F   24236.57021369  .00000148  00000+0  45612-4 0  9993
2 43574  86.4018 333.7034 0002314  96.0059 264.1401 14.34215533318432
IRIDIUM 163             
1 43575U 18061G   24236.55119374  .00000816  00000+0  28443-3 0  9990
2 43575  86.4015 333.6474 0002254  91.0605 269.0849 14.34220036318403
IRIDIUM 156             
1 43576U 18061H   24236.52581200  .00000758  00000+0  26346-3 0  9994
2 43576  86.4016 333.6646 0001970  94.8494 265.2927 14.34220476318398
IRIDIUM 164             
1 43577U 18061J   24236.50678844  .00000507  00000+0  17403-3 0  9990
2 43577  86.4016 333.7024 0002268 101.5045 258.6406 14.34218061318439
IRIDIUM 159             
1 43578U 18061K   24236.54484367  .00000519  00000+0  17816-3 0  9991
2 43578  86.4016 333.6373 0002277  95.6013 264.5442 14.34218994318402
IRIDIUM 180             
1 43922U 19002A   24236.61411893  .00000594  00000+0  20489-3 0  9995
2 43922  86.3919 270.4672 0002425  94.7688 265.3785 14.34218501294023
IRIDIUM 176             
1 43923U 19002B   24236.60968774  .00002049  00000+0  32115-3 0  9996
2 43923  86.6046 270.4858 0002575  95.4685 264.6826 14.72242605301767
IRIDIUM 168             
1 43924U 19002C   24236.60776814  .00000554  00000+0  19080-3 0  9994
2 43924  86.3922 270.5285 0002326  94.3021 265.8440 14.34220417294007
IRIDIUM 173             
1 43925U 19002D   24236.59509381  .00000596  00000+0  20580-3 0  9999
2 43925  86.3918 270.4498 0002389  92.8551 267.2918 14.34218018293984
IRIDIUM 169             
1 43926U 19002E   24236.59438159  .00000097  00000+0  25160-4 0  9990
2 43926  86.4223 302.0934 0003166  56.6264 303.5237 14.38592565294968
IRIDIUM 172             
1 43927U 19002F   24236.58875021  .00000594  00000+0  20515-3 0  9993
2 43927  86.3918 270.4584 0002246  92.6271 267.5182 14.34218099293997
IRIDIUM 175             
1 43928U 19002G   24236.53639281  .00001019  00000+0  15761-3 0  9995
2 43928  86.1472 239.8510 0002410  86.7870 273.3622 14.72247358301740
IRIDIUM 171             
1 43929U 19002H   24236.56970900  .00000042  00000+0  79006-5 0  9994
2 43929  86.3931 270.6994 0001985  99.7199 260.4221 14.34214662293984
IRIDIUM 170             
1 43930U 19002J   24236.54791216  .00002012  00000+0  31522-3 0  9993
2 43930  86.6046 270.5168 0002608  93.2202 266.9313 14.72243193301767
IRIDIUM 167             
1 43931U 19002K   24236.56336765  .00000578  00000+0  19926-3 0  9999
2 43931  86.3921 270.4857 0002112  93.4255 266.7183 14.34217457293980
IRIDIUM 181             
1 56726U 23068S   24236.55211982  .00001079  00000+0  31309-3 0  9990
2 56726  86.8673 327.5140 0001863  90.7921 269.3494 14.43576914 66850
IRIDIUM 177             
1 56727U 23068T   24236.55639485  .00003341  00000+0  43641-3 0  9999
2 56727  86.1940 283.3735 0002058  88.9011 271.2446 14.80206956 68348
IRIDIUM 174             
1 56728U 23068U   24236.55097054  .00003020  00000+0  39414-3 0  9997
2 56728  86.1945 283.4853 0001812  89.1845 270.9583 14.80210458 68341
IRIDIUM 178             
1 56729U 23068V   24236.61315765  .00001136  00000+0  14608-3 0  9991
2 56729  86.5772 304.1243 0001816  97.6401 262.5027 14.80211434 68350
IRIDIUM 179             
1 56730U 23068W   24236.60748961  .00001469  00000+0  19007-3 0  9997
2 56730  86.6796 309.1116 0002053  88.5393 271.6063 14.80198510 68356
